OBJECT_NAME,OBJECT_ID,EPOCH,MEAN_MOTION,ECCENTRICITY,INCLINATION,RA_OF_ASC_NODE,ARG_OF_PERICENTER,MEAN_ANOMALY,EPHEMERIS_TYPE,CLASSIFICATION_TYPE,NORAD_CAT_ID,ELEMENT_SET_NO,REV_AT_EPOCH,BSTAR,MEAN_MOTION_DOT,MEAN_MOTION_DDOT
TRITON-1,2013-066M,2026-07-22T06:37:00.529248,14.81812136,.00911083,97.8211,112.2796,119.2947,241.7409,0,U,39427,999,67928,.15260863E-3,.1239E-4,0
GOMX-1,2013-066Q,2026-07-22T06:03:30.268224,14.69551236,.01276589,97.6470,41.5023,325.4770,33.8194,0,U,39430,999,67506,.87728634E-4,.536E-5,0
CUBEBUG-2 (LO-74),2013-066AA,2026-07-22T07:04:20.987040,14.94001241,.00554484,97.8917,152.4311,271.2491,88.2376,0,U,39440,999,68223,.24278153E-3,.2604E-4,0
NEE-02 KRYSAOR,2013-066AB,2026-07-22T06:35:27.347712,14.86759539,.0064824,97.8896,142.2439,315.7839,43.8206,0,U,39441,999,68141,.18417581E-3,.1643E-4,0
FUNCUBE-1 (AO-73),2013-066AE,2026-07-21T20:29:21.960096,15.09885034,.00381133,97.8301,175.0373,86.0733,274.4851,0,U,39444,999,68489,.47205108E-3,.7711E-4,0
UWE-3,2013-066AG,2026-07-21T20:04:24.811392,14.97233886,.00477658,97.8727,159.1532,201.8178,158.1010,0,U,39446,999,68276,.26824669E-3,.3114E-4,0
SMDC ONE 2.4,2013-072H,2026-07-22T07:03:24.836544,15.18977034,.01483652,120.4880,127.7027,55.8992,305.6062,0,U,39469,999,12316,.64039318E-3,.17756E-3,0
COSMOS 2488 (RODNIK-S 7),2013-076A,2026-07-22T07:04:44.397120,12.42906597,.00203629,82.4860,146.8243,22.7258,337.4719,0,U,39483,999,57025,.31126612E-3,.53E-6,0
COSMOS 2489 (RODNIK-S 8),2013-076B,2026-07-22T06:30:05.570784,12.42880599,.00221728,82.4897,148.2297,22.4393,337.7651,0,U,39484,999,57030,.64117848E-3,.99E-6,0
COSMOS 2490 (RODNIK-S 9),2013-076C,2026-07-22T05:49:40.695168,12.42879522,.00226338,82.4844,146.2993,37.5083,322.7571,0,U,39485,999,57023,.61781832E-3,.96E-6,0
KAZEOSAT 1,2014-024A,2026-07-22T06:28:13.071936,14.42038521,.00012099,98.3188,274.8409,90.2798,269.8530,0,U,39731,999,64361,-.12370092E-4,-.83E-6,0
COSMOS 2496 (RODNIK-S 10),2014-028A,2026-07-22T06:44:21.219360,12.42879361,.00205764,82.4439,86.7502,5.8978,354.2340,0,U,39761,999,55187,-.69486044E-3,-.86E-6,0
COSMOS 2497 (RODNIK-S 11),2014-028B,2026-07-22T06:08:06.851040,12.42895606,.0021019,82.4488,88.4693,0.9736,359.1381,0,U,39762,999,55187,.102807E-3,.24E-6,0
COSMOS 2498 (RODNIK-S 12),2014-028C,2026-07-22T07:28:16.728672,12.42981048,.00217194,82.4448,86.9062,0.3559,359.7532,0,U,39763,999,55191,-.4696025E-3,-.55E-6,0
HODOYOSHI-4,2014-033B,2026-07-22T06:24:31.798080,14.88199751,.00233463,97.5468,26.3993,185.3933,174.7036,0,U,40011,999,65402,.13887778E-3,.1234E-4,0
UNISAT-6,2014-033C,2026-07-22T05:27:56.502720,14.88387173,.00437069,97.7918,355.3341,314.1378,45.6247,0,U,40012,999,65137,.19328809E-3,.1765E-4,0
DEIMOS-2,2014-033D,2026-07-22T06:48:55.261152,14.93811745,.0001545,97.5785,76.5325,103.4365,256.7028,0,U,40013,999,64296,.124403E-3,.1265E-4,0
BUGSAT-1 (TITA),2014-033E,2026-07-22T06:54:35.010144,15.15928841,.00287874,98.0423,297.8986,62.9227,297.4936,0,U,40014,999,66115,.27872645E-3,.5322E-4,0
SAUDISAT 4,2014-033G,2026-07-22T05:13:57.829152,14.79580722,.00437468,97.7627,348.1506,320.8140,38.9907,0,U,40016,999,65125,.61083636E-4,.412E-5,0
APRIZESAT 9,2014-033J,2026-07-21T23:00:26.070048,14.74258977,.00675004,97.9102,335.3154,88.6511,272.2429,0,U,40018,999,64868,.8443849E-4,.527E-5,0
BRITE-CA1 (TORONTO),2014-033L,2026-07-21T08:23:05.265600,14.72731418,.00789328,97.9778,330.6555,166.5957,193.7373,0,U,40020,999,64724,.12831632E-3,.807E-5,0
