TRITON-1                
1 39427U 13066M   26203.27570057  .00001239  00000+0  15261-3 0  9999
2 39427  97.8211 112.2796 0091108 119.2947 241.7409 14.81812136679289
GOMX-1                  
1 39430U 13066Q   26203.25243366  .00000536  00000+0  87729-4 0  9999
2 39430  97.6470  41.5023 0127658 325.4770  33.8194 14.69551236675060
CUBEBUG-2 (LO-74)       
1 39440U 13066AA  26203.29468735  .00002604  00000+0  24278-3 0  9990
2 39440  97.8917 152.4311 0055448 271.2491  88.2376 14.94001241682233
NEE-02 KRYSAOR          
1 39441U 13066AB  26203.27462208  .00001643  00000+0  18418-3 0  9999
2 39441  97.8896 142.2439 0064824 315.7839  43.8206 14.86759539681415
FUNCUBE-1 (AO-73)       
1 39444U 13066AE  26202.85372639  .00007711  00000+0  47205-3 0  9991
2 39444  97.8301 175.0373 0038113  86.0733 274.4851 15.09885034684892
UWE-3                   
1 39446U 13066AG  26202.83639828  .00003114  00000+0  26825-3 0  9995
2 39446  97.8727 159.1532 0047765 201.8178 158.1010 14.97233886682766
SMDC ONE 2.4            
1 39469U 13072H   26203.29403746  .00017756  00000+0  64039-3 0  9992
2 39469 120.4880 127.7027 0148365  55.8992 305.6062 15.18977034123167
COSMOS 2488 (RODNIK-S 7)
1 39483U 13076A   26203.29495830  .00000053  00000+0  31127-3 0  9991
2 39483  82.4860 146.8243 0020362  22.7258 337.4719 12.42906597570252
COSMOS 2489 (RODNIK-S 8)
1 39484U 13076B   26203.27089781  .00000099  00000+0  64118-3 0  9990
2 39484  82.4897 148.2297 0022172  22.4393 337.7651 12.42880599570303
COSMOS 2490 (RODNIK-S 9)
1 39485U 13076C   26203.24283212  .00000096  00000+0  61782-3 0  9994
2 39485  82.4844 146.2993 0022633  37.5083 322.7571 12.42879522570233
KAZEOSAT 1              
1 39731U 14024A   26203.26959574 -.00000083  00000+0 -12370-4 0  9993
2 39731  98.3188 274.8409 0001209  90.2798 269.8530 14.42038521643616
COSMOS 2496 (RODNIK-S *)
1 39761U 14028A   26203.28080115 -.00000086  00000+0 -69486-3 0  9990
2 39761  82.4439  86.7502 0020576   5.8978 354.2340 12.42879361551873
COSMOS 2497 (RODNIK-S *)
1 39762U 14028B   26203.25563485  .00000024  00000+0  10281-3 0  9993
2 39762  82.4488  88.4693 0021019   0.9736 359.1381 12.42895606551878
COSMOS 2498 (RODNIK-S *)
1 39763U 14028C   26203.31130473 -.00000055  00000+0 -46960-3 0  9997
2 39763  82.4448  86.9062 0021719   0.3559 359.7532 12.42981048551917
HODOYOSHI-4             
1 40011U 14033B   26203.26703470  .00001234  00000+0  13888-3 0  9999
2 40011  97.5468  26.3993 0023346 185.3933 174.7036 14.88199751654027
UNISAT-6                
1 40012U 14033C   26203.22773730  .00001765  00000+0  19329-3 0  9997
2 40012  97.7918 355.3341 0043706 314.1378  45.6247 14.88387173651371
DEIMOS-2                
1 40013U 14033D   26203.28397293  .00001265  00000+0  12440-3 0  9992
2 40013  97.5785  76.5325 0001545 103.4365 256.7028 14.93811745642966
BUGSAT-1 (TITA)         
1 40014U 14033E   26203.28790521  .00005322  00000+0  27873-3 0  9998
2 40014  98.0423 297.8986 0028787  62.9227 297.4936 15.15928841661159
SAUDISAT 4              
1 40016U 14033G   26203.21803043  .00000412  00000+0  61084-4 0  9995
2 40016  97.7627 348.1506 0043746 320.8140  38.9907 14.79580722651250
APRIZESAT 9             
1 40018U 14033J   26202.95863507  .00000527  00000+0  84438-4 0  9993
2 40018  97.9102 335.3154 0067500  88.6511 272.2429 14.74258977648688
BRITE-CA1 (TORONTO)     
1 40020U 14033L   26202.34936650  .00000807  00000+0  12832-3 0  9998
2 40020  97.9778 330.6555 0078932 166.5957 193.7373 14.72731418647244
